IRIDIUM 155             
1 43573U 18061E   22365.32415206  .00000280  00000+0  92821-4 0  9994
2 43573  86.3977 224.8256 0002006  95.8815 264.2610 14.34220246232205
IRIDIUM 154             
1 43574U 18061F   22365.37489440  .00000273  00000+0  90447-4 0  9995
2 43574  86.3981 224.8769 0001806  80.6019 279.5381 14.34220120232266
IRIDIUM 163             
1 43575U 18061G   22365.35586611  .00000280  00000+0  92822-4 0  9999
2 43575  86.3979 224.8391 0002290  81.1698 278.9757 14.34220798232230
IRIDIUM 156             
1 43576U 18061H   22365.33049178  .00000279  00000+0  92440-4 0  9994
2 43576  86.3977 224.8553 0002312  88.6004 271.5457 14.34222102232223
IRIDIUM 164             
1 43577U 18061J   22365.38122580  .00000262  00000+0  86451-4 0  9996
2 43577  86.3980 224.8554 0001949  78.9991 281.1424 14.34213726232279
IRIDIUM 159             
1 43578U 18061K   22365.34952551  .00000283  00000+0  93904-4 0  9996
2 43578  86.3978 224.8318 0001900  82.1791 277.9621 14.34219846232234
IRIDIUM 180             
1 43922U 19002A   22365.41877763  .00000325  00000+0  10907-3 0  9992
2 43922  86.3990 161.7727 0001892  78.8814 281.2595 14.34221800207853
IRIDIUM 176             
1 43923U 19002B   22365.50334618  .00001170  00000+0  18162-3 0  9990
2 43923  86.6125 161.7780 0002232  90.9615 269.1858 14.72274439213323
IRIDIUM 168             
1 43924U 19002C   22365.48220595  .00000325  00000+0  10892-3 0  9999
2 43924  86.3992 161.7877 0001828  87.2590 272.8815 14.34218113207840
IRIDIUM 173             
1 43925U 19002D   22365.53928506  .00000104  00000+0  30195-4 0  9997
2 43925  86.3991 161.7044 0001878  85.4242 274.7168 14.34214961207833
IRIDIUM 169             
1 43926U 19002E   22365.49341844  .00000116  00000+0  31392-4 0  9990
2 43926  86.4245 193.2763 0004432 158.4605 201.6781 14.38612096208542
IRIDIUM 172             
1 43927U 19002F   22365.53293382  .00000331  00000+0  11120-3 0  9994
2 43927  86.3990 161.7114 0001863  82.3689 277.7718 14.34218024207846
IRIDIUM 175             
1 43928U 19002G   22365.49716780  .00000465  00000+0  69838-4 0  9990
2 43928  86.6127 161.6168 0002104  92.5501 267.5957 14.72242008213317
IRIDIUM 171             
1 43929U 19002H   22365.51391975  .00000053  00000+0  11952-4 0  9996
2 43929  86.4000 161.8849 0001781  87.7797 272.3602 14.34215008207836
IRIDIUM 170             
1 43930U 19002J   22365.50955562  .00001168  00000+0  18130-3 0  9997
2 43930  86.6125 161.7807 0002180  89.5347 270.6120 14.72260203213333
IRIDIUM 167             
1 43931U 19002K   22365.50757145  .00000330  00000+0  11060-3 0  9990
2 43931  86.3992 161.7331 0001846  81.3131 278.8274 14.34219150207835
